1 39428U 13066N   23319.47471602  .00005984  00000+0  82465-3 0  9994
2 39428  97.8356 239.1104 0109065  62.9046 298.3239 14.74492523534418